{
  "norad_id": 55135,
  "name": "2023-003C",
  "history": [
    {
      "epoch": "2026-04-10T06:56:13.219296Z",
      "apogee_km": 410.8013872022839,
      "perigee_km": 406.0929908236294,
      "latitude_deg": 9.05691316580903e-05,
      "longitude_deg": -125.65781497251763,
      "height_km": 409.8098742752009,
      "semi_major_axis_km": 6786.584189012956,
      "eccentricity": 0.00034689,
      "inclination_deg": 97.1556,
      "raan_deg": 176.9223,
      "arg_perigee_deg": 41.063,
      "mean_anomaly_deg": 319.0885,
      "mean_motion_rev_day": 15.52837107
    },
    {
      "epoch": "2026-04-11T20:03:15.251616Z",
      "apogee_km": 410.53744810880744,
      "perigee_km": 406.0190528350422,
      "latitude_deg": 4.2215386021642346e-05,
      "longitude_deg": 37.60146954754407,
      "height_km": 409.61224022485413,
      "semi_major_axis_km": 6786.415250471924,
      "eccentricity": 0.0003329,
      "inclination_deg": 97.1557,
      "raan_deg": 178.4644,
      "arg_perigee_deg": 36.9991,
      "mean_anomaly_deg": 323.1492,
      "mean_motion_rev_day": 15.52895091
    },
    {
      "epoch": "2026-04-13T06:04:38.118144Z",
      "apogee_km": 410.3155570423205,
      "perigee_km": 405.9978455378114,
      "latitude_deg": 9.872299061283171e-05,
      "longitude_deg": -112.72729104285196,
      "height_km": 409.4640622072928,
      "semi_major_axis_km": 6786.293701290066,
      "eccentricity": 0.00031812,
      "inclination_deg": 97.1558,
      "raan_deg": 179.8782,
      "arg_perigee_deg": 31.9647,
      "mean_anomaly_deg": 328.18,
      "mean_motion_rev_day": 15.52936812
    },
    {
      "epoch": "2026-04-14T20:44:19.594752Z",
      "apogee_km": 410.08985783751814,
      "perigee_km": 405.986936192483,
      "latitude_deg": -2.1691562711355447e-05,
      "longitude_deg": 27.368834274123458,
      "height_km": 409.3557368580887,
      "semi_major_axis_km": 6786.175397015,
      "eccentricity": 0.0003023,
      "inclination_deg": 97.1559,
      "raan_deg": 181.4849,
      "arg_perigee_deg": 27.3519,
      "mean_anomaly_deg": 332.7893,
      "mean_motion_rev_day": 15.52977421
    },
    {
      "epoch": "2026-04-15T19:56:06.779328Z",
      "apogee_km": 409.9689997369287,
      "perigee_km": 405.97062560290397,
      "latitude_deg": -3.886470603062868e-05,
      "longitude_deg": 39.43349193947207,
      "height_km": 409.2966807169204,
      "semi_major_axis_km": 6786.1068126699165,
      "eccentricity": 0.0002946,
      "inclination_deg": 97.1558,
      "raan_deg": 182.4488,
      "arg_perigee_deg": 24.933,
      "mean_anomaly_deg": 335.2065,
      "mean_motion_rev_day": 15.53000964
    },
    {
      "epoch": "2026-04-16T20:40:39.730080Z",
      "apogee_km": 409.8041811829962,
      "perigee_km": 405.98771625263726,
      "latitude_deg": -3.00381198521871e-05,
      "longitude_deg": 28.30846019914421,
      "height_km": 409.2631775779253,
      "semi_major_axis_km": 6786.032948717816,
      "eccentricity": 0.0002812,
      "inclination_deg": 97.1556,
      "raan_deg": 183.4772,
      "arg_perigee_deg": 21.7096,
      "mean_anomaly_deg": 338.4276,
      "mean_motion_rev_day": 15.5302632
    },
    {
      "epoch": "2026-04-17T22:57:58.192992Z",
      "apogee_km": 409.6433813993144,
      "perigee_km": 405.98263280848187,
      "latitude_deg": -1.0297835495001325e-05,
      "longitude_deg": -6.005598464245726,
      "height_km": 409.22551025273214,
      "semi_major_axis_km": 6785.950007103897,
      "eccentricity": 0.00026973,
      "inclination_deg": 97.1551,
      "raan_deg": 184.5697,
      "arg_perigee_deg": 19.2619,
      "mean_anomaly_deg": 340.8736,
      "mean_motion_rev_day": 15.53054793
    },
    {
      "epoch": "2026-04-18T20:36:54.174240Z",
      "apogee_km": 409.47845894515467,
      "perigee_km": 405.94981635357726,
      "latitude_deg": 6.677967135421103e-05,
      "longitude_deg": 29.271748696519012,
      "height_km": 409.1556404772738,
      "semi_major_axis_km": 6785.851137649366,
      "eccentricity": 0.00026,
      "inclination_deg": 97.1549,
      "raan_deg": 185.4694,
      "arg_perigee_deg": 15.6081,
      "mean_anomaly_deg": 344.5253,
      "mean_motion_rev_day": 15.53088735
    },
    {
      "epoch": "2026-04-19T21:21:21.667968Z",
      "apogee_km": 409.2764416717637,
      "perigee_km": 405.9093624943498,
      "latitude_deg": 7.004675940531503e-05,
      "longitude_deg": 18.169514416310896,
      "height_km": 409.09376286714934,
      "semi_major_axis_km": 6785.729902083056,
      "eccentricity": 0.0002481,
      "inclination_deg": 97.1543,
      "raan_deg": 186.4978,
      "arg_perigee_deg": 13.0274,
      "mean_anomaly_deg": 347.1044,
      "mean_motion_rev_day": 15.53130357
    },
    {
      "epoch": "2026-04-20T14:21:54.352800Z",
      "apogee_km": 409.15065413325283,
      "perigee_km": 405.9119903564124,
      "latitude_deg": 3.3199834325664036e-05,
      "longitude_deg": 123.04179269546482,
      "height_km": 409.0789164984641,
      "semi_major_axis_km": 6785.668322244832,
      "eccentricity": 0.00023864,
      "inclination_deg": 97.1541,
      "raan_deg": 187.2048,
      "arg_perigee_deg": 10.2004,
      "mean_anomaly_deg": 349.9298,
      "mean_motion_rev_day": 15.53151499
    },
    {
      "epoch": "2026-04-21T21:17:23.718912Z",
      "apogee_km": 408.8640612467452,
      "perigee_km": 405.8879352457152,
      "latitude_deg": -5.355695736567979e-05,
      "longitude_deg": 19.185004123627035,
      "height_km": 409.03781251009815,
      "semi_major_axis_km": 6785.51299824623,
      "eccentricity": 0.0002193,
      "inclination_deg": 97.1537,
      "raan_deg": 188.4904,
      "arg_perigee_deg": 5.9917,
      "mean_anomaly_deg": 354.1362,
      "mean_motion_rev_day": 15.53204828
    },
    {
      "epoch": "2026-04-22T20:28:58.439424Z",
      "apogee_km": 408.7155786227422,
      "perigee_km": 405.8521310220085,
      "latitude_deg": 1.0638532105345643e-05,
      "longitude_deg": 31.301823184484306,
      "height_km": 408.99457055988364,
      "semi_major_axis_km": 6785.420854822375,
      "eccentricity": 0.000211,
      "inclination_deg": 97.1538,
      "raan_deg": 189.4544,
      "arg_perigee_deg": 1.3168,
      "mean_anomaly_deg": 358.8091,
      "mean_motion_rev_day": 15.53236466
    },
    {
      "epoch": "2026-04-23T15:02:12.950592Z",
      "apogee_km": 408.58820674536946,
      "perigee_km": 405.8204660142601,
      "latitude_deg": 5.07701379679019e-05,
      "longitude_deg": 113.00076653431464,
      "height_km": 408.96375486382107,
      "semi_major_axis_km": 6785.3413363798145,
      "eccentricity": 0.00020395,
      "inclination_deg": 97.1538,
      "raan_deg": 190.2258,
      "arg_perigee_deg": 357.8237,
      "mean_anomaly_deg": 2.3008,
      "mean_motion_rev_day": 15.5326377
    },
    {
      "epoch": "2026-04-24T20:24:48.397824Z",
      "apogee_km": 408.3539398263865,
      "perigee_km": 405.78234707701813,
      "latitude_deg": -8.513754711961547e-06,
      "longitude_deg": 32.367725178447394,
      "height_km": 408.93936500057043,
      "semi_major_axis_km": 6785.205143451702,
      "eccentricity": 0.0001895,
      "inclination_deg": 97.154,
      "raan_deg": 191.4469,
      "arg_perigee_deg": 351.4355,
      "mean_anomaly_deg": 8.6866,
      "mean_motion_rev_day": 15.53310536
    },
    {
      "epoch": "2026-04-25T19:36:17.007264Z",
      "apogee_km": 408.1623992001687,
      "perigee_km": 405.70348985227247,
      "latitude_deg": 7.020698467839492e-05,
      "longitude_deg": 44.51007712820949,
      "height_km": 408.8843984050926,
      "semi_major_axis_km": 6785.06994452622,
      "eccentricity": 0.0001812,
      "inclination_deg": 97.1541,
      "raan_deg": 192.4109,
      "arg_perigee_deg": 345.7319,
      "mean_anomaly_deg": 14.3884,
      "mean_motion_rev_day": 15.53356963
    },
    {
      "epoch": "2026-04-26T23:25:59.841984Z",
      "apogee_km": 407.9123798538858,
      "perigee_km": 405.60714333016676,
      "latitude_deg": 8.517944439325632e-05,
      "longitude_deg": -12.904280771880051,
      "height_km": 408.8284420296989,
      "semi_major_axis_km": 6784.8967615920255,
      "eccentricity": 0.00016988,
      "inclination_deg": 97.1545,
      "raan_deg": 193.5679,
      "arg_perigee_deg": 338.8028,
      "mean_anomaly_deg": 21.3156,
      "mean_motion_rev_day": 15.53416437
    },
    {
      "epoch": "2026-04-27T21:04:37.234272Z",
      "apogee_km": 407.74196419205236,
      "perigee_km": 405.5070637493509,
      "latitude_deg": -1.4421079306049025e-06,
      "longitude_deg": 22.45065357647283,
      "height_km": 408.77824588005643,
      "semi_major_axis_km": 6784.761513970701,
      "eccentricity": 0.0001647,
      "inclination_deg": 97.1545,
      "raan_deg": 194.4675,
      "arg_perigee_deg": 332.3552,
      "mean_anomaly_deg": 27.7614,
      "mean_motion_rev_day": 15.53462886
    },
    {
      "epoch": "2026-04-28T20:15:57.786048Z",
      "apogee_km": 407.5942504328559,
      "perigee_km": 405.4041698642195,
      "latitude_deg": 1.601643580617998e-05,
      "longitude_deg": 34.62667957410842,
      "height_km": 408.7407875791801,
      "semi_major_axis_km": 6784.636210148537,
      "eccentricity": 0.0001614,
      "inclination_deg": 97.1547,
      "raan_deg": 195.4315,
      "arg_perigee_deg": 325.4873,
      "mean_anomaly_deg": 34.6276,
      "mean_motion_rev_day": 15.53505922
    },
    {
      "epoch": "2026-04-29T21:00:01.316736Z",
      "apogee_km": 407.472580641931,
      "perigee_km": 405.2730425610089,
      "latitude_deg": 3.054579980770986e-05,
      "longitude_deg": 23.624664709453636,
      "height_km": 408.69806723163583,
      "semi_major_axis_km": 6784.50981160147,
      "eccentricity": 0.0001621,
      "inclination_deg": 97.1547,
      "raan_deg": 196.46,
      "arg_perigee_deg": 318.1286,
      "mean_anomaly_deg": 41.9844,
      "mean_motion_rev_day": 15.53549336
    }
  ]
}